KUIPER-00028            
1 63741U 25088T   26088.21262612  .00007935  00000+0  10655-2 0  9992
2 63741  51.9024   6.7183 0001594  91.3851 268.7294 14.80060401 50956
KUIPER-00029            
1 63742U 25088U   26088.14815190  .00000934  00000+0  15145-3 0  9992
2 63742  51.9052   4.5568 0000663  88.0284 272.0754 14.79935098 50501
KUIPER-00030            
1 63743U 25088V   26088.09279066  .00004906  00000+0  67175-3 0  9996
2 63743  51.9043  24.7465 0001256 145.2676 214.8369 14.79956320 50509
KUIPER-00031            
1 63744U 25088W   26088.03561100  .00007185  00000+0  88397-3 0  9995
2 63744  51.9025   9.6252 0001222 185.2215 174.8737 14.83867143 50426
KUIPER-00032            
1 63745U 25088X   26087.97100858  .00017179  00000+0  46227-3 0  9997
2 63745  51.8684 290.9411 0004951 180.6621 179.4360 15.37956727 52513
KUIPER-00033            
1 63746U 25088Y   26088.04286826 -.00005284  00000+0 -66423-3 0  9993
2 63746  51.9030  39.9933 0001129  89.6835 270.4256 14.79954235 50486
KUIPER-00034            
1 63747U 25088Z   26088.15084578  .00007514  00000+0  10132-2 0  9997
2 63747  51.9035   2.0423 0000922  82.6304 277.4763 14.79948209 50700
KUIPER-00035            
1 63748U 25088AA  26088.08603589  .00007484  00000+0  92742-3 0  9993
2 63748  51.9015  27.6241 0003968 120.7451 239.3904 14.83512694 50399
KUIPER-00037            
1 63749U 25088AB  26088.08999315 -.00010817  00000+0 -13921-2 0  9996
2 63749  51.9025  27.2684 0000801 109.7280 250.3769 14.79935574 51189
KUIPER-00038            
1 63750U 25088AC  26088.03885917  .00005906  00000+0  80153-3 0  9998
2 63750  51.9037  12.5324 0000926  96.8641 263.2427 14.80015406 50387
KUIPER-00039            
1 64500U 25134A   26087.87628859  .00004209  00000+0  58053-3 0  9994
2 64500  51.9010 148.2515 0000482  67.9466 292.1547 14.79953056 42916
KUIPER-00040            
1 64501U 25134B   26087.89967800  .00005320  00000+0  66722-3 0  9996
2 64501  51.8990 158.9592 0011240 335.1628  24.8793 14.83502080 42768
KUIPER-00041            
1 64502U 25134C   26087.59271914  .00004327  00000+0  59643-3 0  9998
2 64502  51.8987 161.9937 0001026  42.8168 317.2874 14.79919760 42697
KUIPER-00042            
1 64503U 25134D   26088.18288122  .00006158  00000+0  77185-3 0  9999
2 64503  51.8987 155.1724 0005515 357.5936   2.5001 14.83309292 42844
KUIPER-00043            
1 64504U 25134E   26088.18015098  .00005039  00000+0  68930-3 0  9995
2 64504  51.9018 146.8453 0000588  84.2965 275.8065 14.79943039 42964
KUIPER-00044            
1 64505U 25134F   26087.91412670  .00005145  00000+0  64692-3 0  9992
2 64505  51.8992 161.4289 0006183 348.7276  11.3548 14.83472035 42737
KUIPER-00046            
1 64506U 25134G   26087.59536161  .00000662  00000+0  11582-3 0  9998
2 64506  51.8976 159.4461 0000481  93.2505 266.8512 14.79929163 42733
