[{"OBJECT_NAME":"KUIPER-00028","OBJECT_ID":"2025-088T","EPOCH":"2026-03-29T05:06:10.896768","MEAN_MOTION":14.80060401,"ECCENTRICITY":0.0001594,"INCLINATION":51.9024,"RA_OF_ASC_NODE":6.7183,"ARG_OF_PERICENTER":91.3851,"MEAN_ANOMALY":268.7294,"EPHEMERIS_TYPE":0,"CLASSIFICATION_TYPE":"U","NORAD_CAT_ID":63741,"ELEMENT_SET_NO":999,"REV_AT_EPOCH":5095,"BSTAR":0.0010655,"MEAN_MOTION_DOT":7.935e-5,"MEAN_MOTION_DDOT":0},{"OBJECT_NAME":"KUIPER-00029","OBJECT_ID":"2025-088U","EPOCH":"2026-03-29T03:33:20.324160","MEAN_MOTION":14.79935098,"ECCENTRICITY":6.63e-5,"INCLINATION":51.9052,"RA_OF_ASC_NODE":4.5568,"ARG_OF_PERICENTER":88.0284,"MEAN_ANOMALY":272.0754,"EPHEMERIS_TYPE":0,"CLASSIFICATION_TYPE":"U","NORAD_CAT_ID":63742,"ELEMENT_SET_NO":999,"REV_AT_EPOCH":5050,"BSTAR":0.00015145,"MEAN_MOTION_DOT":9.34e-6,"MEAN_MOTION_DDOT":0},{"OBJECT_NAME":"KUIPER-00030","OBJECT_ID":"2025-088V","EPOCH":"2026-03-29T02:13:37.113024","MEAN_MOTION":14.7995632,"ECCENTRICITY":0.0001256,"INCLINATION":51.9043,"RA_OF_ASC_NODE":24.7465,"ARG_OF_PERICENTER":145.2676,"MEAN_ANOMALY":214.8369,"EPHEMERIS_TYPE":0,"CLASSIFICATION_TYPE":"U","NORAD_CAT_ID":63743,"ELEMENT_SET_NO":999,"REV_AT_EPOCH":5050,"BSTAR":0.00067175,"MEAN_MOTION_DOT":4.906e-5,"MEAN_MOTION_DDOT":0},{"OBJECT_NAME":"KUIPER-00031","OBJECT_ID":"2025-088W","EPOCH":"2026-03-29T00:51:16.790400","MEAN_MOTION":14.83867143,"ECCENTRICITY":0.0001222,"INCLINATION":51.9025,"RA_OF_ASC_NODE":9.6252,"ARG_OF_PERICENTER":185.2215,"MEAN_ANOMALY":174.8737,"EPHEMERIS_TYPE":0,"CLASSIFICATION_TYPE":"U","NORAD_CAT_ID":63744,"ELEMENT_SET_NO":999,"REV_AT_EPOCH":5042,"BSTAR":0.00088397,"MEAN_MOTION_DOT":7.185e-5,"MEAN_MOTION_DDOT":0},{"OBJECT_NAME":"KUIPER-00032","OBJECT_ID":"2025-088X","EPOCH":"2026-03-28T23:18:15.141312","MEAN_MOTION":15.37956727,"ECCENTRICITY":0.0004951,"INCLINATION":51.8684,"RA_OF_ASC_NODE":290.9411,"ARG_OF_PERICENTER":180.6621,"MEAN_ANOMALY":179.436,"EPHEMERIS_TYPE":0,"CLASSIFICATION_TYPE":"U","NORAD_CAT_ID":63745,"ELEMENT_SET_NO":999,"REV_AT_EPOCH":5251,"BSTAR":0.00046227,"MEAN_MOTION_DOT":0.00017179,"MEAN_MOTION_DDOT":0},{"OBJECT_NAME":"KUIPER-00033","OBJECT_ID":"2025-088Y","EPOCH":"2026-03-29T01:01:43.817664","MEAN_MOTION":14.79954235,"ECCENTRICITY":0.0001129,"INCLINATION":51.903,"RA_OF_ASC_NODE":39.9933,"ARG_OF_PERICENTER":89.6835,"MEAN_ANOMALY":270.4256,"EPHEMERIS_TYPE":0,"CLASSIFICATION_TYPE":"U","NORAD_CAT_ID":63746,"ELEMENT_SET_NO":999,"REV_AT_EPOCH":5048,"BSTAR":-0.00066423,"MEAN_MOTION_DOT":-5.284e-5,"MEAN_MOTION_DDOT":0},{"OBJECT_NAME":"KUIPER-00034","OBJECT_ID":"2025-088Z","EPOCH":"2026-03-29T03:37:13.075392","MEAN_MOTION":14.79948209,"ECCENTRICITY":9.22e-5,"INCLINATION":51.9035,"RA_OF_ASC_NODE":2.0423,"ARG_OF_PERICENTER":82.6304,"MEAN_ANOMALY":277.4763,"EPHEMERIS_TYPE":0,"CLASSIFICATION_TYPE":"U","NORAD_CAT_ID":63747,"ELEMENT_SET_NO":999,"REV_AT_EPOCH":5070,"BSTAR":0.0010132,"MEAN_MOTION_DOT":7.514e-5,"MEAN_MOTION_DDOT":0},{"OBJECT_NAME":"KUIPER-00035","OBJECT_ID":"2025-088AA","EPOCH":"2026-03-29T02:03:53.500896","MEAN_MOTION":14.83512694,"ECCENTRICITY":0.0003968,"INCLINATION":51.9015,"RA_OF_ASC_NODE":27.6241,"ARG_OF_PERICENTER":120.7451,"MEAN_ANOMALY":239.3904,"EPHEMERIS_TYPE":0,"CLASSIFICATION_TYPE":"U","NORAD_CAT_ID":63748,"ELEMENT_SET_NO":999,"REV_AT_EPOCH":5039,"BSTAR":0.00092742,"MEAN_MOTION_DOT":7.484e-5,"MEAN_MOTION_DDOT":0},{"OBJECT_NAME":"KUIPER-00037","OBJECT_ID":"2025-088AB","EPOCH":"2026-03-29T02:09:35.408160","MEAN_MOTION":14.79935574,"ECCENTRICITY":8.01e-5,"INCLINATION":51.9025,"RA_OF_ASC_NODE":27.2684,"ARG_OF_PERICENTER":109.728,"MEAN_ANOMALY":250.3769,"EPHEMERIS_TYPE":0,"CLASSIFICATION_TYPE":"U","NORAD_CAT_ID":63749,"ELEMENT_SET_NO":999,"REV_AT_EPOCH":5118,"BSTAR":-0.0013921,"MEAN_MOTION_DOT":-0.00010817,"MEAN_MOTION_DDOT":0},{"OBJECT_NAME":"KUIPER-00038","OBJECT_ID":"2025-088AC","EPOCH":"2026-03-29T00:55:57.432288","MEAN_MOTION":14.80015406,"ECCENTRICITY":9.26e-5,"INCLINATION":51.9037,"RA_OF_ASC_NODE":12.5324,"ARG_OF_PERICENTER":96.8641,"MEAN_ANOMALY":263.2427,"EPHEMERIS_TYPE":0,"CLASSIFICATION_TYPE":"U","NORAD_CAT_ID":63750,"ELEMENT_SET_NO":999,"REV_AT_EPOCH":5038,"BSTAR":0.00080153,"MEAN_MOTION_DOT":5.906e-5,"MEAN_MOTION_DDOT":0},{"OBJECT_NAME":"KUIPER-00039","OBJECT_ID":"2025-134A","EPOCH":"2026-03-28T21:01:51.334176","MEAN_MOTION":14.79953056,"ECCENTRICITY":4.82e-5,"INCLINATION":51.901,"RA_OF_ASC_NODE":148.2515,"ARG_OF_PERICENTER":67.9466,"MEAN_ANOMALY":292.1547,"EPHEMERIS_TYPE":0,"CLASSIFICATION_TYPE":"U","NORAD_CAT_ID":64500,"ELEMENT_SET_NO":999,"REV_AT_EPOCH":4291,"BSTAR":0.00058053,"MEAN_MOTION_DOT":4.209e-5,"MEAN_MOTION_DDOT":0},{"OBJECT_NAME":"KUIPER-00040","OBJECT_ID":"2025-134B","EPOCH":"2026-03-28T21:35:32.179200","MEAN_MOTION":14.8350208,"ECCENTRICITY":0.001124,"INCLINATION":51.899,"RA_OF_ASC_NODE":158.9592,"ARG_OF_PERICENTER":335.1628,"MEAN_ANOMALY":24.8793,"EPHEMERIS_TYPE":0,"CLASSIFICATION_TYPE":"U","NORAD_CAT_ID":64501,"ELEMENT_SET_NO":999,"REV_AT_EPOCH":4276,"BSTAR":0.00066722,"MEAN_MOTION_DOT":5.32e-5,"MEAN_MOTION_DDOT":0},{"OBJECT_NAME":"KUIPER-00041","OBJECT_ID":"2025-134C","EPOCH":"2026-03-28T14:13:30.933696","MEAN_MOTION":14.7991976,"ECCENTRICITY":0.0001026,"INCLINATION":51.8987,"RA_OF_ASC_NODE":161.9937,"ARG_OF_PERICENTER":42.8168,"MEAN_ANOMALY":317.2874,"EPHEMERIS_TYPE":0,"CLASSIFICATION_TYPE":"U","NORAD_CAT_ID":64502,"ELEMENT_SET_NO":999,"REV_AT_EPOCH":4269,"BSTAR":0.00059643,"MEAN_MOTION_DOT":4.327e-5,"MEAN_MOTION_DDOT":0},{"OBJECT_NAME":"KUIPER-00042","OBJECT_ID":"2025-134D","EPOCH":"2026-03-29T04:23:20.937408","MEAN_MOTION":14.83309292,"ECCENTRICITY":0.0005515,"INCLINATION":51.8987,"RA_OF_ASC_NODE":155.1724,"ARG_OF_PERICENTER":357.5936,"MEAN_ANOMALY":2.5001,"EPHEMERIS_TYPE":0,"CLASSIFICATION_TYPE":"U","NORAD_CAT_ID":64503,"ELEMENT_SET_NO":999,"REV_AT_EPOCH":4284,"BSTAR":0.00077185,"MEAN_MOTION_DOT":6.158e-5,"MEAN_MOTION_DDOT":0},{"OBJECT_NAME":"KUIPER-00043","OBJECT_ID":"2025-134E","EPOCH":"2026-03-29T04:19:25.044672","MEAN_MOTION":14.79943039,"ECCENTRICITY":5.88e-5,"INCLINATION":51.9018,"RA_OF_ASC_NODE":146.8453,"ARG_OF_PERICENTER":84.2965,"MEAN_ANOMALY":275.8065,"EPHEMERIS_TYPE":0,"CLASSIFICATION_TYPE":"U","NORAD_CAT_ID":64504,"ELEMENT_SET_NO":999,"REV_AT_EPOCH":4296,"BSTAR":0.0006893,"MEAN_MOTION_DOT":5.039e-5,"MEAN_MOTION_DDOT":0},{"OBJECT_NAME":"KUIPER-00044","OBJECT_ID":"2025-134F","EPOCH":"2026-03-28T21:56:20.546880","MEAN_MOTION":14.83472035,"ECCENTRICITY":0.0006183,"INCLINATION":51.8992,"RA_OF_ASC_NODE":161.4289,"ARG_OF_PERICENTER":348.7276,"MEAN_ANOMALY":11.3548,"EPHEMERIS_TYPE":0,"CLASSIFICATION_TYPE":"U","NORAD_CAT_ID":64505,"ELEMENT_SET_NO":999,"REV_AT_EPOCH":4273,"BSTAR":0.00064692,"MEAN_MOTION_DOT":5.145e-5,"MEAN_MOTION_DDOT":0},{"OBJECT_NAME":"KUIPER-00046","OBJECT_ID":"2025-134G","EPOCH":"2026-03-28T14:17:19.243104","MEAN_MOTION":14.79929163,"ECCENTRICITY":4.81e-5,"INCLINATION":51.8976,"RA_OF_ASC_NODE":159.4461,"ARG_OF_PERICENTER":93.2505,"MEAN_ANOMALY":266.8512,"EPHEMERIS_TYPE":0,"CLASSIFICATION_TYPE":"U","NORAD_CAT_ID":64506,"ELEMENT_SET_NO":999,"REV_AT_EPOCH":4273,"BSTAR":0.00011582,"MEAN_MOTION_DOT":6.62e-6,"MEAN_MOTION_DDOT":0}]
